[
    {
        "OBJECT_NAME": "BEIDOU-3 IGSO-3",
        "OBJECT_ID": "2019-073A",
        "EPOCH": "2025-03-09T23:51:04.364928",
        "MEAN_MOTION": 1.00275766,
        "ECCENTRICITY": 0.0041789,
        "INCLINATION": 55.5942,
        "RA_OF_ASC_NODE": 285.895,
        "ARG_OF_PERICENTER": 181.8885,
        "MEAN_ANOMALY": 178.1502,
        "EPHEMERIS_TYPE": 0,
        "CLASSIFICATION_TYPE": "U",
        "NORAD_CAT_ID": 44709,
        "ELEMENT_SET_NO": 999,
        "REV_AT_EPOCH": 1980,
        "BSTAR": 0,
        "MEAN_MOTION_DOT": -1.45e-06,
        "MEAN_MOTION_DDOT": 0
    },
    {
        "OBJECT_NAME": "BEIDOU-3 M22",
        "OBJECT_ID": "2019-078A",
        "EPOCH": "2025-03-10T03:45:41.004576",
        "MEAN_MOTION": 1.86232027,
        "ECCENTRICITY": 0.0007191,
        "INCLINATION": 54.3486,
        "RA_OF_ASC_NODE": 316.1022,
        "ARG_OF_PERICENTER": 28.2976,
        "MEAN_ANOMALY": 331.7914,
        "EPHEMERIS_TYPE": 0,
        "CLASSIFICATION_TYPE": "U",
        "NORAD_CAT_ID": 44793,
        "ELEMENT_SET_NO": 999,
        "REV_AT_EPOCH": 3600,
        "BSTAR": 0,
        "MEAN_MOTION_DOT": -6.8e-07,
        "MEAN_MOTION_DDOT": 0
    },
    {
        "OBJECT_NAME": "BEIDOU-3 M21",
        "OBJECT_ID": "2019-078B",
        "EPOCH": "2025-03-09T05:08:08.600352",
        "MEAN_MOTION": 1.8622769,
        "ECCENTRICITY": 0.0005231,
        "INCLINATION": 54.3228,
        "RA_OF_ASC_NODE": 316.1056,
        "ARG_OF_PERICENTER": 22.5587,
        "MEAN_ANOMALY": 337.512,
        "EPHEMERIS_TYPE": 0,
        "CLASSIFICATION_TYPE": "U",
        "NORAD_CAT_ID": 44794,
        "ELEMENT_SET_NO": 999,
        "REV_AT_EPOCH": 3599,
        "BSTAR": 0,
        "MEAN_MOTION_DOT": -6.9e-07,
        "MEAN_MOTION_DDOT": 0
    },
    {
        "OBJECT_NAME": "BEIDOU-3 M19",
        "OBJECT_ID": "2019-090A",
        "EPOCH": "2025-03-09T14:03:02.257920",
        "MEAN_MOTION": 1.86231518,
        "ECCENTRICITY": 0.0020125,
        "INCLINATION": 56.1506,
        "RA_OF_ASC_NODE": 78.1954,
        "ARG_OF_PERICENTER": 286.3786,
        "MEAN_ANOMALY": 155.6157,
        "EPHEMERIS_TYPE": 0,
        "CLASSIFICATION_TYPE": "U",
        "NORAD_CAT_ID": 44864,
        "ELEMENT_SET_NO": 999,
        "REV_AT_EPOCH": 3557,
        "BSTAR": 0,
        "MEAN_MOTION_DOT": 8e-08,
        "MEAN_MOTION_DDOT": 0
    },
    {
        "OBJECT_NAME": "BEIDOU-3 M20",
        "OBJECT_ID": "2019-090B",
        "EPOCH": "2025-03-10T10:38:42.338112",
        "MEAN_MOTION": 1.86231504,
        "ECCENTRICITY": 0.0017758,
        "INCLINATION": 56.153,
        "RA_OF_ASC_NODE": 78.2005,
        "ARG_OF_PERICENTER": 297.9915,
        "MEAN_ANOMALY": 88.9994,
        "EPHEMERIS_TYPE": 0,
        "CLASSIFICATION_TYPE": "U",
        "NORAD_CAT_ID": 44865,
        "ELEMENT_SET_NO": 999,
        "REV_AT_EPOCH": 3558,
        "BSTAR": 0,
        "MEAN_MOTION_DOT": 1.1e-07,
        "MEAN_MOTION_DDOT": 0
    },
    {
        "OBJECT_NAME": "BEIDOU-3 G2",
        "OBJECT_ID": "2020-017A",
        "EPOCH": "2025-03-10T20:15:26.300160",
        "MEAN_MOTION": 1.00272161,
        "ECCENTRICITY": 0.0003144,
        "INCLINATION": 2.706,
        "RA_OF_ASC_NODE": 38.1733,
        "ARG_OF_PERICENTER": 304.2596,
        "MEAN_ANOMALY": 210.2096,
        "EPHEMERIS_TYPE": 0,
        "CLASSIFICATION_TYPE": "U",
        "NORAD_CAT_ID": 45344,
        "ELEMENT_SET_NO": 999,
        "REV_AT_EPOCH": 1861,
        "BSTAR": 0,
        "MEAN_MOTION_DOT": -1.57e-06,
        "MEAN_MOTION_DDOT": 0
    },
    {
        "OBJECT_NAME": "BEIDOU-3 G3",
        "OBJECT_ID": "2020-040A",
        "EPOCH": "2025-03-10T20:24:07.881408",
        "MEAN_MOTION": 1.0027117,
        "ECCENTRICITY": 0.000329,
        "INCLINATION": 1.3319,
        "RA_OF_ASC_NODE": 61.2889,
        "ARG_OF_PERICENTER": 314.9817,
        "MEAN_ANOMALY": 209.069,
        "EPHEMERIS_TYPE": 0,
        "CLASSIFICATION_TYPE": "U",
        "NORAD_CAT_ID": 45807,
        "ELEMENT_SET_NO": 999,
        "REV_AT_EPOCH": 1742,
        "BSTAR": 0,
        "MEAN_MOTION_DOT": -3.7e-06,
        "MEAN_MOTION_DDOT": 0
    },
    {
        "OBJECT_NAME": "BEIDOU-3 G4",
        "OBJECT_ID": "2023-066A",
        "EPOCH": "2025-03-10T21:28:14.709216",
        "MEAN_MOTION": 1.00271455,
        "ECCENTRICITY": 0.0001625,
        "INCLINATION": 1.4623,
        "RA_OF_ASC_NODE": 290.3531,
        "ARG_OF_PERICENTER": 225.8792,
        "MEAN_ANOMALY": 134.6431,
        "EPHEMERIS_TYPE": 0,
        "CLASSIFICATION_TYPE": "U",
        "NORAD_CAT_ID": 56564,
        "ELEMENT_SET_NO": 999,
        "REV_AT_EPOCH": 674,
        "BSTAR": 0,
        "MEAN_MOTION_DOT": -1.3e-06,
        "MEAN_MOTION_DDOT": 0
    },
    {
        "OBJECT_NAME": "BEIDOU-3 M28",
        "OBJECT_ID": "2023-207A",
        "EPOCH": "2025-03-10T08:51:23.282208",
        "MEAN_MOTION": 1.86232025,
        "ECCENTRICITY": 0.0004932,
        "INCLINATION": 55.3382,
        "RA_OF_ASC_NODE": 78.0005,
        "ARG_OF_PERICENTER": 293.4093,
        "MEAN_ANOMALY": 66.5805,
        "EPHEMERIS_TYPE": 0,
        "CLASSIFICATION_TYPE": "U",
        "NORAD_CAT_ID": 58654,
        "ELEMENT_SET_NO": 999,
        "REV_AT_EPOCH": 820,
        "BSTAR": 0,
        "MEAN_MOTION_DOT": 8e-08,
        "MEAN_MOTION_DDOT": 0
    },
    {
        "OBJECT_NAME": "BEIDOU-3 M26",
        "OBJECT_ID": "2023-207B",
        "EPOCH": "2025-03-10T04:02:51.038592",
        "MEAN_MOTION": 1.86231528,
        "ECCENTRICITY": 0.0005665,
        "INCLINATION": 55.34,
        "RA_OF_ASC_NODE": 77.9933,
        "ARG_OF_PERICENTER": 279.3044,
        "MEAN_ANOMALY": 80.6731,
        "EPHEMERIS_TYPE": 0,
        "CLASSIFICATION_TYPE": "U",
        "NORAD_CAT_ID": 58655,
        "ELEMENT_SET_NO": 999,
        "REV_AT_EPOCH": 818,
        "BSTAR": 0,
        "MEAN_MOTION_DOT": 7e-08,
        "MEAN_MOTION_DDOT": 0
    },
    {
        "OBJECT_NAME": "BEIDOU-3 M25",
        "OBJECT_ID": "2024-168B",
        "EPOCH": "2025-03-10T06:52:28.024608",
        "MEAN_MOTION": 1.86230105,
        "ECCENTRICITY": 0.0004512,
        "INCLINATION": 54.8746,
        "RA_OF_ASC_NODE": 318.312,
        "ARG_OF_PERICENTER": 308.0968,
        "MEAN_ANOMALY": 249.15,
        "EPHEMERIS_TYPE": 0,
        "CLASSIFICATION_TYPE": "U",
        "NORAD_CAT_ID": 61186,
        "ELEMENT_SET_NO": 999,
        "REV_AT_EPOCH": 314,
        "BSTAR": 0,
        "MEAN_MOTION_DOT": -7.2e-07,
        "MEAN_MOTION_DDOT": 0
    },
    {
        "OBJECT_NAME": "BEIDOU-3 M27",
        "OBJECT_ID": "2024-168C",
        "EPOCH": "2025-03-09T00:45:18.320256",
        "MEAN_MOTION": 1.86230209,
        "ECCENTRICITY": 0.0002861,
        "INCLINATION": 54.871,
        "RA_OF_ASC_NODE": 318.3401,
        "ARG_OF_PERICENTER": 6.5507,
        "MEAN_ANOMALY": 204.152,
        "EPHEMERIS_TYPE": 0,
        "CLASSIFICATION_TYPE": "U",
        "NORAD_CAT_ID": 61187,
        "ELEMENT_SET_NO": 999,
        "REV_AT_EPOCH": 59,
        "BSTAR": 0,
        "MEAN_MOTION_DOT": -7.3e-07,
        "MEAN_MOTION_DDOT": 0
    }
]