BEIDOU-3 IGSO-3 (C40)   
1 44709U 19073A   25068.99380052 -.00000145  00000+0  00000+0 0  9990
2 44709  55.5942 285.8950 0041789 181.8885 178.1502  1.00275766 19807
BEIDOU-3 M22 (C44)      
1 44793U 19078A   25069.15672459 -.00000068  00000+0  00000+0 0  9996
2 44793  54.3486 316.1022 0007191  28.2976 331.7914  1.86232027 36004
BEIDOU-3 M21 (C43)      
1 44794U 19078B   25068.21398843 -.00000069  00000+0  00000+0 0  9996
2 44794  54.3228 316.1056 0005231  22.5587 337.5120  1.86227690 35994
BEIDOU-3 M19 (C41)      
1 44864U 19090A   25068.58544280  .00000008  00000+0  00000+0 0  9998
2 44864  56.1506  78.1954 0020125 286.3786 155.6157  1.86231518 35570
BEIDOU-3 M20 (C42)      
1 44865U 19090B   25069.44354558  .00000011  00000+0  00000+0 0  9996
2 44865  56.1530  78.2005 0017758 297.9915  88.9994  1.86231504 35589
BEIDOU-3 G2 (C60)       
1 45344U 20017A   25069.84405440 -.00000157  00000+0  00000+0 0  9993
2 45344   2.7060  38.1733 0003144 304.2596 210.2096  1.00272161 18619
BEIDOU-3 G3 (C61)       
1 45807U 20040A   25069.85009122 -.00000370  00000+0  00000+0 0  9998
2 45807   1.3319  61.2889 0003290 314.9817 209.0690  1.00271170 17423
BEIDOU-3 G4 (C62)       
1 56564U 23066A   25069.89461469 -.00000130  00000+0  00000+0 0  9995
2 56564   1.4623 290.3531 0001625 225.8792 134.6431  1.00271455  6740
BEIDOU-3 M28 (C50)      
1 58654U 23207A   25069.36901947  .00000008  00000+0  00000+0 0  9999
2 58654  55.3382  78.0005 0004932 293.4093  66.5805  1.86232025  8203
BEIDOU-3 M26 (C48)      
1 58655U 23207B   25069.16864628  .00000007  00000+0  00000+0 0  9991
2 58655  55.3400  77.9933 0005665 279.3044  80.6731  1.86231528  8185
BEIDOU-3 M25 (C47)      
1 61186U 24168B   25069.28643547 -.00000072  00000+0  00000+0 0  9992
2 61186  54.8746 318.3120 0004512 308.0968 249.1500  1.86230105  3147
BEIDOU-3 M27 (C49)      
1 61187U 24168C   25068.03146204 -.00000073  00000+0  00000+0 0  9994
2 61187  54.8710 318.3401 0002861   6.5507 204.1520  1.86230209   599
